[{"OBJECT_NAME":"HXMT (HUIYAN)","OBJECT_ID":"2017-034A","EPOCH":"2026-03-25T15:21:22.146624","MEAN_MOTION":15.17663809,"ECCENTRICITY":0.00323223,"INCLINATION":43.0145,"RA_OF_ASC_NODE":287.9837,"ARG_OF_PERICENTER":333.2583,"MEAN_ANOMALY":26.6598,"EPHEMERIS_TYPE":0,"CLASSIFICATION_TYPE":"U","NORAD_CAT_ID":42758,"ELEMENT_SET_NO":999,"REV_AT_EPOCH":48496,"BSTAR":0.00025404051,"MEAN_MOTION_DOT":5.038e-5,"MEAN_MOTION_DDOT":0},{"OBJECT_NAME":"SAOCOM 1A","OBJECT_ID":"2018-076A","EPOCH":"2026-03-25T15:00:42.954624","MEAN_MOTION":14.82159291,"ECCENTRICITY":0.00015197,"INCLINATION":97.8905,"RA_OF_ASC_NODE":272.5731,"ARG_OF_PERICENTER":87.1142,"MEAN_ANOMALY":273.0245,"EPHEMERIS_TYPE":0,"CLASSIFICATION_TYPE":"U","NORAD_CAT_ID":43641,"ELEMENT_SET_NO":999,"REV_AT_EPOCH":40372,"BSTAR":0.00012590886,"MEAN_MOTION_DOT":9.5e-6,"MEAN_MOTION_DDOT":0},{"OBJECT_NAME":"H-2A R/B","OBJECT_ID":"2018-084L","EPOCH":"2026-03-25T12:06:43.027488","MEAN_MOTION":15.42005973,"ECCENTRICITY":0.00240666,"INCLINATION":98.871,"RA_OF_ASC_NODE":305.2796,"ARG_OF_PERICENTER":330.4775,"MEAN_ANOMALY":29.5107,"EPHEMERIS_TYPE":0,"CLASSIFICATION_TYPE":"U","NORAD_CAT_ID":43682,"ELEMENT_SET_NO":999,"REV_AT_EPOCH":40821,"BSTAR":0.0004850234,"MEAN_MOTION_DOT":0.00020811,"MEAN_MOTION_DDOT":0},{"OBJECT_NAME":"SAOCOM 1B","OBJECT_ID":"2020-059A","EPOCH":"2026-03-25T15:45:41.229216","MEAN_MOTION":14.82151313,"ECCENTRICITY":0.00014673,"INCLINATION":97.8904,"RA_OF_ASC_NODE":271.7017,"ARG_OF_PERICENTER":86.029,"MEAN_ANOMALY":274.1091,"EPHEMERIS_TYPE":0,"CLASSIFICATION_TYPE":"U","NORAD_CAT_ID":46265,"ELEMENT_SET_NO":999,"REV_AT_EPOCH":30111,"BSTAR":2.6552268e-5,"MEAN_MOTION_DOT":1.59e-6,"MEAN_MOTION_DDOT":0},{"OBJECT_NAME":"CSS (TIANHE)","OBJECT_ID":"2021-035A","EPOCH":"2026-03-25T12:24:55.636704","MEAN_MOTION":15.6147204,"ECCENTRICITY":0.000456,"INCLINATION":41.4665,"RA_OF_ASC_NODE":111.7955,"ARG_OF_PERICENTER":19.2317,"MEAN_ANOMALY":340.8694,"EPHEMERIS_TYPE":0,"CLASSIFICATION_TYPE":"U","NORAD_CAT_ID":48274,"ELEMENT_SET_NO":999,"REV_AT_EPOCH":28008,"BSTAR":0.00024918078,"MEAN_MOTION_DOT":0.00021659,"MEAN_MOTION_DDOT":0},{"OBJECT_NAME":"COSMOS 2550","OBJECT_ID":"2021-056A","EPOCH":"2026-03-25T14:57:58.652064","MEAN_MOTION":15.33837463,"ECCENTRICITY":0.0008329,"INCLINATION":67.1433,"RA_OF_ASC_NODE":352.6841,"ARG_OF_PERICENTER":269.7204,"MEAN_ANOMALY":90.2996,"EPHEMERIS_TYPE":0,"CLASSIFICATION_TYPE":"U","NORAD_CAT_ID":48865,"ELEMENT_SET_NO":999,"REV_AT_EPOCH":26590,"BSTAR":3.38139e-7,"MEAN_MOTION_DOT":-1.81e-6,"MEAN_MOTION_DDOT":0},{"OBJECT_NAME":"CZ-2C R/B","OBJECT_ID":"2022-058K","EPOCH":"2026-03-25T10:49:25.367520","MEAN_MOTION":15.5535112,"ECCENTRICITY":0.0041554,"INCLINATION":50.1872,"RA_OF_ASC_NODE":237.1422,"ARG_OF_PERICENTER":268.1846,"MEAN_ANOMALY":91.4366,"EPHEMERIS_TYPE":0,"CLASSIFICATION_TYPE":"U","NORAD_CAT_ID":52794,"ELEMENT_SET_NO":999,"REV_AT_EPOCH":21258,"BSTAR":0.00043993725,"MEAN_MOTION_DOT":0.00031308,"MEAN_MOTION_DDOT":0},{"OBJECT_NAME":"CZ-2C R/B","OBJECT_ID":"2022-132E","EPOCH":"2026-03-25T10:41:46.623264","MEAN_MOTION":15.63313395,"ECCENTRICITY":0.00184005,"INCLINATION":97.2967,"RA_OF_ASC_NODE":88.2586,"ARG_OF_PERICENTER":40.4738,"MEAN_ANOMALY":319.7886,"EPHEMERIS_TYPE":0,"CLASSIFICATION_TYPE":"U","NORAD_CAT_ID":54039,"ELEMENT_SET_NO":999,"REV_AT_EPOCH":19283,"BSTAR":0.00053468779,"MEAN_MOTION_DOT":0.00049575,"MEAN_MOTION_DDOT":0},{"OBJECT_NAME":"GSLV R/B","OBJECT_ID":"2022-138AN","EPOCH":"2026-03-25T11:57:22.376160","MEAN_MOTION":14.96876968,"ECCENTRICITY":0.0024109,"INCLINATION":87.3865,"RA_OF_ASC_NODE":161.0707,"ARG_OF_PERICENTER":94.479,"MEAN_ANOMALY":265.9197,"EPHEMERIS_TYPE":0,"CLASSIFICATION_TYPE":"U","NORAD_CAT_ID":54149,"ELEMENT_SET_NO":999,"REV_AT_EPOCH":18629,"BSTAR":0.00023562616,"MEAN_MOTION_DOT":2.746e-5,"MEAN_MOTION_DDOT":0},{"OBJECT_NAME":"XRISM","OBJECT_ID":"2023-137A","EPOCH":"2026-03-25T13:18:38.034432","MEAN_MOTION":15.11676926,"ECCENTRICITY":0.00079131,"INCLINATION":31.0012,"RA_OF_ASC_NODE":181.0334,"ARG_OF_PERICENTER":199.2588,"MEAN_ANOMALY":160.7752,"EPHEMERIS_TYPE":0,"CLASSIFICATION_TYPE":"U","NORAD_CAT_ID":57800,"ELEMENT_SET_NO":999,"REV_AT_EPOCH":14019,"BSTAR":0.00031696793,"MEAN_MOTION_DOT":5.629e-5,"MEAN_MOTION_DDOT":0},{"OBJECT_NAME":"ACS3","OBJECT_ID":"2024-077B","EPOCH":"2026-03-25T13:12:59.669568","MEAN_MOTION":13.90324412,"ECCENTRICITY":0.00710682,"INCLINATION":97.1985,"RA_OF_ASC_NODE":22.0981,"ARG_OF_PERICENTER":39.7528,"MEAN_ANOMALY":320.8814,"EPHEMERIS_TYPE":0,"CLASSIFICATION_TYPE":"U","NORAD_CAT_ID":59588,"ELEMENT_SET_NO":999,"REV_AT_EPOCH":9640,"BSTAR":0.016130766,"MEAN_MOTION_DOT":0.00020432,"MEAN_MOTION_DDOT":0},{"OBJECT_NAME":"SZ-21 MODULE","OBJECT_ID":"2025-246C","EPOCH":"2026-03-25T09:52:53.814144","MEAN_MOTION":15.69739008,"ECCENTRICITY":0.00010026,"INCLINATION":41.4741,"RA_OF_ASC_NODE":106.4894,"ARG_OF_PERICENTER":208.3621,"MEAN_ANOMALY":151.7166,"EPHEMERIS_TYPE":0,"CLASSIFICATION_TYPE":"U","NORAD_CAT_ID":66515,"ELEMENT_SET_NO":999,"REV_AT_EPOCH":2054,"BSTAR":0.00028093455,"MEAN_MOTION_DOT":0.0003423,"MEAN_MOTION_DDOT":0}]
